[{"OBJECT_NAME":"STARLINK-2139","OBJECT_ID":"2021-041B","EPOCH":"2026-03-09T10:53:26.839968","MEAN_MOTION":15.30202762,"ECCENTRICITY":0.00012873,"INCLINATION":53.1615,"RA_OF_ASC_NODE":127.7973,"ARG_OF_PERICENTER":99.9388,"MEAN_ANOMALY":260.1758,"EPHEMERIS_TYPE":0,"CLASSIFICATION_TYPE":"U","NORAD_CAT_ID":48554,"ELEMENT_SET_NO":999,"REV_AT_EPOCH":26524,"BSTAR":-2.4509264e-5,"MEAN_MOTION_DOT":-1.085e-5,"MEAN_MOTION_DDOT":0},{"OBJECT_NAME":"OBJECT A","OBJECT_ID":"2022-023A","EPOCH":"2026-03-07T09:13:29.633664","MEAN_MOTION":15.18202647,"ECCENTRICITY":0.00985337,"INCLINATION":63.4765,"RA_OF_ASC_NODE":256.024,"ARG_OF_PERICENTER":341.4326,"MEAN_ANOMALY":18.3199,"EPHEMERIS_TYPE":0,"CLASSIFICATION_TYPE":"U","NORAD_CAT_ID":51946,"ELEMENT_SET_NO":999,"REV_AT_EPOCH":22226,"BSTAR":0.00019500419,"MEAN_MOTION_DOT":4.303e-5,"MEAN_MOTION_DDOT":0}]
